EUTELSAT HOTBIRD 13C    
1 33459U 08065A   26197.25994963 -.00000295  00000+0  00000+0 0  9990
2 33459   3.0232  78.8456 0003414  37.9357 220.5808  1.00270404 47633
EXPRESS-AM44            
1 33595U 09007A   26197.26774966 -.00000102  00000+0  00000+0 0  9995
2 33595   3.5359  78.0327 0003620  31.4241 270.0069  1.00271092 52570
NSS-9                   
1 33749U 09008A   26197.16363119  .00000060  00000+0  00000+0 0  9992
2 33749   1.3347  82.3684 0001893  21.7700  71.8280  1.00272363 63813
TELSTAR 11N             
1 34111U 09009A   26197.26246297 -.00000261  00000+0  00000+0 0  9999
2 34111   0.0338 267.7262 0002225 198.5458 244.7440  1.00272759 46535
WGS F2 (USA 204)        
1 34713U 09017A   26197.13875775  .00000058  00000+0  00000+0 0  9994
2 34713   0.0151  46.7811 0000319 182.0984 172.5258  1.00270423 45906
SES-7 (PROTOSTAR 2)     
1 34941U 09027A   26197.29123645 -.00000355  00000+0  00000+0 0  9998
2 34941   0.0113  46.5748 0001435 152.3485 308.2724  1.00269402 62922
MEASAT-3A               
1 35362U 09032A   26195.09162029 -.00000117  00000+0  00000+0 0  9993
2 35362   0.0359 317.7686 0002568 143.9350  23.2173  1.00269864  8307
EWS-G3 (GOES 14)        
1 35491U 09033A   26197.29452979 -.00000370  00000+0  00000+0 0  9998
2 35491   1.7629  82.6780 0001947  40.0398  41.8252  1.00097572  6880
FM-5                    
1 35493U 09034A   26194.90035760 -.00000205  00000+0  00000+0 0  9998
2 35493   0.0457 259.5714 0000757  86.9227 183.2440  1.00271245 46912
TERRESTAR-1             
1 35496U 09035A   26194.52058797 -.00000064  00000+0  00000+0 0  9998
2 35496   5.1989  48.7738 0002618  55.2029 263.8324  1.00270674 62393
ASIASAT 5               
1 35696U 09042A   26197.09281006  .00000000  00000+0  00000+0 0  9993
2 35696   0.0298  77.0314 0001477  31.7935 319.0887  1.00266547 61991
JCSAT-12 (JCSAT-RA)     
1 35755U 09044A   26197.29608980 -.00000338  00000+0  00000+0 0  9992
2 35755   0.0534 263.7444 0000813 289.3500 339.6792  1.00271666 61902
OPTUS D3                
1 35756U 09044B   26193.95034191 -.00000147  00000+0  00000+0 0  9997
2 35756   0.8917 268.2973 0002923 204.5770 316.2131  1.00268614 61823
NIMIQ 5                 
1 35873U 09050A   26197.25552961 -.00000267  00000+0  00000+0 0  9994
2 35873   0.0492 250.1430 0002588 220.2779 202.9508  1.00270525 61634
AMAZONAS 2              
1 35942U 09054A   26197.25561627 -.00000271  00000+0  00000+0 0  9999
2 35942   1.8888  82.6743 0003210  33.5022 197.9256  1.00269644 61478
COMSATBW-1              
1 35943U 09054B   26197.21155990  .00000014  00000+0  00000+0 0  9992
2 35943   0.0644 170.5091 0002674 305.0822 317.6262  1.00270170 61598
NSS-12                  
1 36032U 09058A   26197.20992052  .00000061  00000+0  00000+0 0  9995
2 36032   0.0900 269.4258 0004880 169.5420 347.6308  1.00271011 61201
THOR 6                  
1 36033U 09058B   26197.26974301  .00000000  00000+0  00000+0 0  9992
2 36033   0.0192  84.3059 0001690  33.5285 272.5402  1.00269912 61290
INTELSAT 14 (IS-14)     
1 36097U 09064A   26197.26098963 -.00000284  00000+0  00000+0 0  9995
2 36097   0.0162 343.2667 0002251 141.4450 218.3188  1.00268332 60895
EUTELSAT 36B            
1 36101U 09065A   26197.20862051  .00000101  00000+0  00000+0 0  9990
2 36101   0.5626  81.3343 0005778  34.4771 303.8480  1.00274363 60993
INTELSAT 15 (IS-15)     
1 36106U 09067A   26196.93024110 -.00000195  00000+0  00000+0 0  9996
2 36106   0.0167 359.1777 0002252 122.2404 232.3618  1.00268551 41511
WGS F3 (USA 211)        
1 36108U 09068A   26196.74516760  .00000054  00000+0  00000+0 0  9998
2 36108   0.2979  85.6112 0000666 101.0929 245.1494  1.00270754 46870
DIRECTV 12              
1 36131U 09075A   26195.96641635 -.00000112  00000+0  00000+0 0  9991
2 36131   0.0065 109.4409 0000351 121.9560 306.6005  1.00271543 46831
BEIDOU-2 G1             
1 36287U 10001A   26196.94133449 -.00000292  00000+0  00000+0 0  9991
2 36287   4.3590  60.3034 0001852 285.2041  67.6130  1.00271714 60454
SDO                     
1 36395U 10005A   26196.34409457 -.00000103  00000+0  00000+0 0  9995
2 36395  34.7081  85.9138 0001835  46.0485 182.8654  1.00277108 60342
INTELSAT 16 (IS-16)     
1 36397U 10006A   26197.25483627 -.00000255  00000+0  00000+0 0  9998
2 36397   0.0127  52.8977 0002390  85.3261 171.3870  1.00269781 59945
EWS-G2 (GOES 15)        
1 36411U 10008A   26197.13988442  .00000011  00000+0  00000+0 0  9998
2 36411   1.3556  82.4456 0005264  54.0896 271.0977  1.00268468 59928
ECHOSTAR 14             
1 36499U 10010A   26197.24975396 -.00000010  00000+0  00000+0 0  9993
2 36499   0.0445 240.7692 0001911 216.9759 167.3290  1.00271594 46846
SES-1                   
1 36516U 10016A   26196.82206926 -.00000125  00000+0  00000+0 0  9995
2 36516   0.0343 295.4407 0002406 176.8211  16.3383  1.00271661 59329
ASTRA 3B                
1 36581U 10021A   26197.27459638  .00000125  00000+0  00000+0 0  9992
2 36581   1.5420  83.2009 0004379  22.3021 310.9529  1.00270644 59155
COMSATBW-2              
1 36582U 10021B   26197.27251637  .00000079  00000+0  00000+0 0  9990
2 36582   0.0471 190.8632 0002412 304.9429 269.6599  1.00275820 59248
BEIDOU-2 G3             
1 36590U 10024A   26197.09990182 -.00000146  00000+0  00000+0 0  9993
2 36590   4.5821  61.3798 0006910 359.4968 348.5733  1.00268289 59057
