OBJECT_NAME,OBJECT_ID,EPOCH,MEAN_MOTION,ECCENTRICITY,INCLINATION,RA_OF_ASC_NODE,ARG_OF_PERICENTER,MEAN_ANOMALY,EPHEMERIS_TYPE,CLASSIFICATION_TYPE,NORAD_CAT_ID,ELEMENT_SET_NO,REV_AT_EPOCH,BSTAR,MEAN_MOTION_DOT,MEAN_MOTION_DDOT
EUTELSAT HOTBIRD 13C,2008-065A,2026-07-16T06:14:19.648032,1.00270404,.00034142,3.0232,78.8456,37.9357,220.5808,0,U,33459,999,4763,0,-.295E-5,0
EXPRESS-AM44,2009-007A,2026-07-16T06:25:33.570624,1.00271092,.000362,3.5359,78.0327,31.4241,270.0069,0,U,33595,999,5257,0,-.102E-5,0
NSS-9,2009-008A,2026-07-16T03:55:37.734816,1.00272363,.00018936,1.3347,82.3684,21.7700,71.8280,0,U,33749,999,6381,0,.6E-6,0
TELSTAR 11N,2009-009A,2026-07-16T06:17:56.800608,1.00272759,.00022251,0.0338,267.7262,198.5458,244.7440,0,U,34111,999,4653,0,-.261E-5,0
WGS F2 (USA 204),2009-017A,2026-07-16T03:19:48.669600,1.00270423,.00003196,0.0151,46.7811,182.0984,172.5258,0,U,34713,999,4590,0,.58E-6,0
SES-7 (PROTOSTAR 2),2009-027A,2026-07-16T06:59:22.829280,1.00269402,.00014358,0.0113,46.5748,152.3485,308.2724,0,U,34941,999,6292,0,-.355E-5,0
MEASAT-3A,2009-032A,2026-07-14T02:11:55.993056,1.00269864,.00025681,0.0359,317.7686,143.9350,23.2173,0,U,35362,999,830,0,-.117E-5,0
EWS-G3 (GOES 14),2009-033A,2026-07-16T07:04:07.373856,1.00097572,.00019475,1.7629,82.6780,40.0398,41.8252,0,U,35491,999,688,0,-.37E-5,0
FM-5,2009-034A,2026-07-13T21:36:30.896640,1.00271245,.00007579,0.0457,259.5714,86.9227,183.2440,0,U,35493,999,4691,0,-.205E-5,0
TERRESTAR-1,2009-035A,2026-07-13T12:29:38.800608,1.00270674,.00026182,5.1989,48.7738,55.2029,263.8324,0,U,35496,999,6239,0,-.64E-6,0
ASIASAT 5,2009-042A,2026-07-16T02:13:38.789184,1.00266547,.00014772,0.0298,77.0314,31.7935,319.0887,0,U,35696,999,6199,0,0,0
JCSAT-12 (JCSAT-RA),2009-044A,2026-07-16T07:06:22.158720,1.00271666,.00008137,0.0534,263.7444,289.3500,339.6792,0,U,35755,999,6190,0,-.338E-5,0
OPTUS D3,2009-044B,2026-07-12T22:48:29.541024,1.00268614,.00029239,0.8917,268.2973,204.5770,316.2131,0,U,35756,999,6182,0,-.147E-5,0
NIMIQ 5,2009-050A,2026-07-16T06:07:57.758304,1.00270525,.00025888,0.0492,250.1430,220.2779,202.9508,0,U,35873,999,6163,0,-.267E-5,0
AMAZONAS 2,2009-054A,2026-07-16T06:08:05.245728,1.00269644,.00032104,1.8888,82.6743,33.5022,197.9256,0,U,35942,999,6147,0,-.271E-5,0
COMSATBW-1,2009-054B,2026-07-16T05:04:38.775360,1.00270170,.0002674,0.0644,170.5091,305.0822,317.6262,0,U,35943,999,6159,0,.14E-6,0
NSS-12,2009-058A,2026-07-16T05:02:17.132928,1.00271011,.00048801,0.0900,269.4258,169.5420,347.6308,0,U,36032,999,6120,0,.61E-6,0
THOR 6,2009-058B,2026-07-16T06:28:25.796064,1.00269912,.00016907,0.0192,84.3059,33.5285,272.5402,0,U,36033,999,6129,0,0,0
INTELSAT 14 (IS-14),2009-064A,2026-07-16T06:15:49.504032,1.00268332,.00022517,0.0162,343.2667,141.4450,218.3188,0,U,36097,999,6089,0,-.284E-5,0
EUTELSAT 36B,2009-065A,2026-07-16T05:00:24.812064,1.00274363,.00057788,0.5626,81.3343,34.4771,303.8480,0,U,36101,999,6099,0,.101E-5,0
INTELSAT 15 (IS-15),2009-067A,2026-07-15T22:19:32.831040,1.00268551,.0002252,0.0167,359.1777,122.2404,232.3618,0,U,36106,999,4151,0,-.195E-5,0
WGS F3 (USA 211),2009-068A,2026-07-15T17:53:02.480640,1.00270754,.00006661,0.2979,85.6112,101.0929,245.1494,0,U,36108,999,4687,0,.54E-6,0
DIRECTV 12,2009-075A,2026-07-14T23:11:38.372640,1.00271543,.00003517,0.0065,109.4409,121.9560,306.6005,0,U,36131,999,4683,0,-.112E-5,0
BEIDOU-2 G1,2010-001A,2026-07-15T22:35:31.299936,1.00271714,.0001852,4.3590,60.3034,285.2041,67.6130,0,U,36287,999,6045,0,-.292E-5,0
SDO,2010-005A,2026-07-15T08:15:29.770848,1.00277108,.00018358,34.7081,85.9138,46.0485,182.8654,0,U,36395,999,6034,0,-.103E-5,0
INTELSAT 16 (IS-16),2010-006A,2026-07-16T06:06:57.853728,1.00269781,.00023902,0.0127,52.8977,85.3261,171.3870,0,U,36397,999,5994,0,-.255E-5,0
EWS-G2 (GOES 15),2010-008A,2026-07-16T03:21:26.013888,1.00268468,.00052641,1.3556,82.4456,54.0896,271.0977,0,U,36411,999,5992,0,.11E-6,0
ECHOSTAR 14,2010-010A,2026-07-16T05:59:38.742144,1.00271594,.00019116,0.0445,240.7692,216.9759,167.3290,0,U,36499,999,4684,0,-.1E-6,0
SES-1,2010-016A,2026-07-15T19:43:46.784064,1.00271661,.0002406,0.0343,295.4407,176.8211,16.3383,0,U,36516,999,5932,0,-.125E-5,0
ASTRA 3B,2010-021A,2026-07-16T06:35:25.127232,1.00270644,.00043796,1.5420,83.2009,22.3021,310.9529,0,U,36581,999,5915,0,.125E-5,0
COMSATBW-2,2010-021B,2026-07-16T06:32:25.414368,1.00275820,.00024122,0.0471,190.8632,304.9429,269.6599,0,U,36582,999,5924,0,.79E-6,0
BEIDOU-2 G3,2010-024A,2026-07-16T02:23:51.517248,1.00268289,.00069103,4.5821,61.3798,359.4968,348.5733,0,U,36590,999,5905,0,-.146E-5,0
